SES-2                   
1 37809U 11049A   26073.55121537 -.00000197  00000+0  00000+0 0  9995
2 37809   0.0352  73.8833 0002820 282.8393 286.8731  1.00272471 53016
QUETZSAT 1              
1 37826U 11054A   26073.55320871 -.00000242  00000+0  00000+0 0  9993
2 37826   0.0315 284.2908 0002741  83.9499 286.0598  1.00270217 48927
SES-4                   
1 38087U 12007A   26072.42586500 -.00000168  00000+0  00000+0 0  9997
2 38087   0.0334  64.0215 0002248 282.6021 315.7290  1.00271455 51269
SES-5                   
1 38652U 12036A   26072.36989076  .00000034  00000+0  00000+0 0  9996
2 38652   0.0621 308.2644 0001933  45.9498 314.9176  1.00273267 43496
ASTRA 2F                
1 38778U 12051A   26073.57409547  .00000149  00000+0  00000+0 0  9993
2 38778   0.0735 256.9139 0002034  23.8855 126.2349  1.00272536 40181
SES-6                   
1 39172U 13026A   26073.48916177 -.00000262  00000+0  00000+0 0  9994
2 39172   0.0483 301.5749 0002048  73.4175 292.6989  1.00271082 46779
O3B FM5                 
1 39188U 13031A   26073.49189989 -.00000021  00000+0  00000+0 0  9994
2 39188   0.0994  11.3133 0003289 333.1293  15.5439  5.00116471232291
O3B FM4                 
1 39189U 13031B   26072.41173487 -.00000022  00000+0  00000+0 0  9993
2 39189   0.0547 345.1246 0005098  15.5435 359.3289  5.00115278232249
O3B FM2                 
1 39190U 13031C   26073.27696491 -.00000021  00000+0  00000+0 0  9994
2 39190   0.0550 338.8712 0002822  11.3990   9.7208  5.00116009232367
O3B PFM                 
1 39191U 13031D   26065.09556941 -.00000026  00000+0  00000+0 0  9996
2 39191   0.0668   7.2787 0005147 352.3292   0.3862  5.00115906231517
ASTRA 2E                
1 39285U 13056A   26073.57409547  .00000149  00000+0  00000+0 0  9993
2 39285   0.0874  45.3685 0002624 301.4478  60.5354  1.00269058 45463
SES-8                   
1 39460U 13071A   26073.64765043 -.00000270  00000+0  00000+0 0  9995
2 39460   0.0380 263.8994 0001893 123.4553 113.0606  1.00273148 43493
ASTRA 5B                
1 39617U 14011B   26072.64614312  .00000137  00000+0  00000+0 0  9996
2 39617   0.0979 295.8843 0003417  40.8961  90.6232  1.00275464 43700
O3B FM3                 
1 40079U 14038A   26073.55759634 -.00000020  00000+0  00000+0 0  9999
2 40079   0.0529 353.7169 0000644  62.9955 303.2902  5.00115628208302
O3B FM7                 
1 40080U 14038B   26072.30434378 -.00000022  00000+0  00000+0 0  9990
2 40080   0.0586 348.6070 0004384 352.5506  18.8225  5.00115635213082
O3B FM6                 
1 40081U 14038C   26073.53069173 -.00000020  00000+0  00000+0 0  9992
2 40081   0.0547 351.2967 0002639   1.0784   7.6174  5.00115702213095
O3B FM8                 
1 40082U 14038D   26073.18422220 -.00000021  00000+0  00000+0 0  9991
2 40082   0.0555 350.6132 0002647   4.5116   4.8690  5.00116014213198
